#dP2023  6 19  0  0  0.00000000      96 __u+U ITR00 FIT  IAC
## 2267  86400.00000000   900.00000000 60114 0.0000000000000
+  119   C06C07C08C09C10C11C12C13C14C16C19C20C21C22C23C24C25
+        C26C27C28C29C30C32C33C34C35C36C37C38C39C40C41C42C43
+        C44C45C46E02E03E04E05E07E08E09E10E11E12E13E14E15E18
+        E19E21E24E25E26E27E30E31E33E34E36G01G02G03G04G05G06
+        G07G08G09G10G11G12G13G14G15G16G17G18G19G20G21G22G23
+        G24G25G26G27G28G29G30G31G32J02J03J04R01R02R03R04R05
+        R07R08R09R11R12R13R14R15R16R17R18R19R20R21R22R24R25
++         8  8  8  8  8  6  7  8  7  7  5  5  7  7  6  6  7
++         7  7  6  7  7  7  7  5  5  7  8  6  9  7  6  6  7
++         7  6  6  5  5  5  5  6  7  6  4  4  5  4  6  6  5
++         6  6  4  5  4  6  6  5  5  5  5  4  4  4  5  6  5
++         5  5  6  5  3  6  5  5  6  5  7  4  5  5  5  5  6
++         5  4  5  4  5  6  5  5  6  6  6  6  5  5  7  6  8
++         6  5  6  6  5  7  5  6  6  5  6  6  5  7  6  5  5
%c M  cc GPS ccc cccc cccc cccc cccc ccccc ccccc ccccc ccccc
%c cc cc ccc ccc cccc cccc cccc cccc ccccc ccccc ccccc ccccc
%f  0.0000000  0.000000000  0.00000000000  0.000000000000000
%f  0.0000000  0.000000000  0.00000000000  0.000000000000000
%i    0    0    0    0      0      0      0      0         0
%i    0    0    0    0      0      0      0      0         0
/* INFORMATION & ANALYSIS CENTER (IAC)      ULTRA-RAPID DATA
/* S/V CLOCKS ARE ALIGNED TO GNSS TIME                      
/* G:C1WC2W R:C1PC2P E:C1XC5X C:C2IC6I J:C1CC2S             
/* PCV:IGS20_2247 OL/AL:FES2004  NONE     YN ORB:CoN CLK:CoN
*  2023 06 19 12 45  0.00000000
PC06  -3643.843265  37602.578142  19037.052171   -175.268977
PC07  -9878.284421  26004.554322 -31670.252557   -196.003004
PC08 -18171.231624  34083.473668  16699.038986    454.761519
PC09   2194.440692  41245.020080  10257.013761    515.967981
PC10  -1977.445660  27038.904741 -31966.113426    -90.380302
PC11  10882.618872 -11863.709080  22856.928477    682.287780
PC12  18634.599395   7890.965842  19240.026437    724.318013
PC13 -11019.793317  33942.231218  22366.271741    299.329433
PC14  21080.520313 -10114.401201 -15169.995942    433.833019
PC16  -4496.245761  36696.685791  20792.075185     37.415260
PC19 -12161.503417  14023.959879  20870.684396   -925.613592
PC20 -25964.786941   5543.034694   8669.147971    492.826947
PC21  25130.537413   7060.336635   9837.921445   -925.052398
PC22   9349.552924  14879.186621  21668.299434   -433.878795
PC23    -41.127289 -22723.502449  16208.481342   -962.866340
PC24  20046.965226 -11077.496858 -15961.749111     79.929175
PC25  13073.531992 -24643.430634   1043.187221    150.577907
PC26  14889.833074   6749.601588 -22628.238353   -136.954545
PC27 -18986.860438 -15610.042178 -13228.337988    157.430817
PC28 -11638.826340 -25227.461474   2650.686508    117.001080
PC29  -3233.319892  20316.296158 -18865.427960    136.116783
PC30 -16468.794784   2887.968816 -22351.099400     -1.355313
PC32 -25185.635355  -6883.615986  -9865.009158   -547.192460
PC33  12134.778517 -14088.138162 -20797.926432   -897.886429
PC34  15862.055180  -4273.724141  22543.562156    196.518498
PC35  12181.473314  24925.571845  -3205.825585    604.915846
PC36 -14108.685916  24072.431797   -285.800975   -374.671016
PC37 -14074.381681  -8238.823531  22661.951959   -786.461144
PC38 -22139.911195  34725.758183   8769.571214     86.133243
PC39  -6305.310731  33472.555253  25044.056283     -3.400315
PC40 -14271.960521  19782.695550 -34446.239716    -26.727459
PC41  -8700.216152 -14987.961159 -21823.598129   -918.133382
PC42  26487.350042  -4714.467304  -7308.495319   -643.449565
PC43   4043.282767 -19786.305146  19236.702782     26.896398
PC44  19594.056004  15068.411603  12962.276716    142.939236
PC45    354.840962  22418.940986 -16596.076919   -112.279639
PC46 -19962.422705  12440.446949  14993.416130    -62.682183
PE02 -12271.620366 -12225.731134  23999.858392     44.952797
PE03 -21051.535115 -19534.744674  -7203.160348    -27.892846
PE04  26356.175654   7762.660725 -10994.138563   -148.231805
PE05  -3276.883670 -20057.339663 -21515.372610    -56.555856
PE07 -16502.993585   8610.099936  23027.866199    -53.814940
PE08 -26389.320144  -8042.894321  10754.753946   -101.424078
PE09  16527.267030  -8401.676786 -23063.651576    -55.560465
PE10  15583.365549  -8672.900400  23610.772954   -542.358785
PE11  12729.104377 -19540.309804  18203.592977   2264.819433
PE12  15943.444947   2638.722712  24789.172470   -585.845937
PE13 -12942.315549  18892.749596 -18762.772249    -19.291996
PE14 -23697.572805 -19644.927648   1050.421388    258.520040
PE15 -15844.575779  -3003.462277 -24822.966368    -30.654385
PE18  13165.605626  20294.819510  -8950.472353    199.901056
PE19  19193.470762  20380.083868   9622.222632  -2264.339931
PE21  -7580.494700  19790.047192 -20665.607452   -535.894742
PE24  24557.698484 -15911.167984   4511.331729   -163.575872
PE25   7936.263930 -19837.690717  20491.889378   -607.007381
PE26  -2078.268331  29508.516954  -1047.291863    138.663288
PE27 -24139.546893  16321.120425  -5188.302895    -78.535321
PE30 -26157.558997   2760.634571  13562.434063   -268.073880
PE31  26303.716968  -3291.007798 -13160.462947   -526.217118
PE33   9363.874837  22956.089912  16173.519252   -442.961990
PE34  -9495.447401 -22821.895704 -16301.861714    -51.644213
PE36   2498.325269 -29435.671618   1791.301324    -73.578347
PG01  13246.664260 -13758.370565  17959.434003    177.453921
PG02  14637.131084  -7819.684304  21211.838045   -584.316279
PG03  22812.427753 -13115.098960  -3226.501941   -264.813359
PG04  15255.682863  -6612.561783 -20724.550780     72.554790
PG05 -23432.089595   2610.808743 -12521.924899   -131.702744
PG06  -5798.124950 -22892.730356 -11999.798314    584.173038
PG07   6190.380260 -24819.559304  -5663.675847    148.154156
PG08  22627.599890   3220.988054  13782.010825   -128.137016
PG09   5469.053001 -14622.271645 -21556.064283   -132.128468
PG10   2479.289252  15074.029129  21869.920194    -41.800127
PG11 -13217.073703  -9868.333013 -20820.064556   -241.728902
PG12 -24582.749184   9934.703178   -511.423119   -390.498427
PG13 -22013.601819 -12044.427133   8841.653144    536.096793
PG14   1203.173362 -16651.801359  20639.602905     95.653834
PG15 -22688.164059   -139.237200  13552.399743     50.292798
PG16  22095.230755   2990.004969 -15071.782315   -489.874689
PG17  -9514.807611 -20226.416337  14692.303291    718.852755
PG18  -4850.736587  25822.612067  -3242.343773   -313.670827
PG19 -15989.368670 -20145.831611   7032.363576    332.673687
PG20 -17985.214531  -4062.140141 -19013.679972    427.170567
PG21  15261.525386  -3608.722800  21887.924404    152.973927
PG22  17867.779305  19235.667151   4994.158823    500.274178
PG23 -10644.087853  17885.421614  16412.060479     34.694174
PG24 -14509.761703   9453.562208  19668.898785   -230.139768
PG25 -17096.215201  17060.969171 -11055.470282    450.819220
PG26  13243.375359  10227.259175 -20802.909803    238.684810
PG27  23193.696957  12761.583301   3806.745542     13.412691
PG28   5911.526470  23854.053626 -10100.622245     83.488368
PG29  -8404.781203  12349.133776 -22013.557697   -603.275055
PG30   -557.602880 -26126.209897   3974.564931   -510.014988
PG31  11826.063367  14625.260970 -18755.413790   -218.470661
PG32  13025.726629  19603.112001  12682.400091   -503.608405
PJ02 -36166.973195  19351.564659  -5288.558161     -0.645970
PJ03 -18736.021005  28259.592463 -20506.939005      6.936506
PJ04 -28301.727518  28463.718830  19175.854169     95.589801
PR01  17462.473686  10455.210210  15368.660240     59.737508
PR02  25096.846893   4290.836087  -1978.002229    -22.675146
PR03  17932.234966  -4820.469972 -17468.909168     79.969569
PR04   1014.517729 -10745.982149 -23080.598433    191.812640
PR05 -16362.782879 -11080.410332 -16103.190862    114.424700
PR07 -17172.366322   5268.349433  18131.729331     58.375971
PR08   -725.772910  10947.997986  23088.978610    -71.327176
PR09 -16302.586639   4858.444614  19061.117478    126.655904
PR11 -10418.405519  20418.851388 -11195.572024    -83.505670
PR12   4686.341739  11045.807742 -22479.216415     28.286984
PR13  15283.816288  -3027.303866 -20205.311013    -36.252652
PR14  17983.386028 -17418.182831  -4809.564761     24.829056
PR15   9642.969112 -20146.785384  12335.611269     88.478125
PR16  -4441.829716 -11148.853227  22516.817108     15.802815
PR17   6899.426775 -10982.040701  21973.778003    640.403879
PR18  -1950.622084 -22743.001200  11343.078439     87.389338
PR19  -8642.840080 -23699.518476  -3810.333220   -236.822677
PR20 -12097.808600  -8905.045819 -20602.803038    -95.038004
PR21  -6274.670899  12147.838880 -21534.277498    -16.414856
PR22   1565.819557  23264.084539 -10338.003388     82.359389
PR24  12750.677391   7728.202291  20701.089405    -12.615940
PR25  -7746.731922  10568.532480 -21880.865562     58.902814
EOF
